NORAD_CAT_ID,OBJECT_NAME,OBJECT_TYPE,EPOCH,MEAN_MOTION,ECCENTRICITY,INCLINATION,RA_OF_ASC_NODE,ARG_OF_PERICENTER,MEAN_ANOMALY,BSTAR,MEAN_MOTION_DOT,MEAN_MOTION_DDOT,TLE_LINE0,TLE_LINE1,TLE_LINE2,SEMIMAJOR_AXIS,PERIOD,APOGEE,PERIGEE,DECAYED
49436.0,STARLINK-3049,PAYLOAD,2023-10-15 21:02:10,15.08837621,0.0001278,53.2153,180.8025,109.0507,251.0623,0.0005145,7.909e-05,0.0,0 STARLINK-3049,1 49436U 21104AE  23288.87650980  .00007909  00000-0  51450-3 0  9993,2 49436  53.2153 180.8025 0001278 109.0507 251.0623 15.08837621107762,6917.888,95.438,540.637,538.869,0.0
49436.0,STARLINK-3049,PAYLOAD,2023-10-16 09:45:15,15.08848328,0.0001252,53.2156,178.4223,91.8349,268.2787,0.00055753,8.598e-05,0.0,0 STARLINK-3049,1 49436U 21104AE  23289.40642800  .00008598  00000-0  55753-3 0  9990,2 49436  53.2156 178.4223 0001252  91.8349 268.2787 15.08848328106779,6917.855,95.437,540.586,538.854,0.0
49436.0,STARLINK-3049,PAYLOAD,2023-10-16 19:17:34,15.08844354,0.000128,53.2151,176.6382,92.1886,267.9253,0.000194,2.801e-05,0.0,0 STARLINK-3049,1 49436U 21104AE  23289.80386764  .00002801  00000-0  19400-3 0  9998,2 49436  53.2151 176.6382 0001280  92.1886 267.9253 15.08844354106837,6917.867,95.437,540.618,538.847,0.0
49436.0,STARLINK-3049,PAYLOAD,2023-10-17 01:39:06,15.08852463,0.0001349,53.2153,175.4472,89.2302,270.8845,0.00042365,6.463e-05,0.0,0 STARLINK-3049,1 49436U 21104AE  23290.06882555  .00006463  00000-0  42365-3 0  9991,2 49436  53.2153 175.4472 0001349  89.2302 270.8845 15.08852463107945,6917.842,95.437,540.641,538.774,0.0
49436.0,STARLINK-3049,PAYLOAD,2023-10-17 09:36:02,15.08851469,0.0001555,53.2149,173.9599,87.3334,272.7837,0.00041445,6.316e-05,0.0,0 STARLINK-3049,1 49436U 21104AE  23290.40002518  .00006316  00000-0  41445-3 0  9997,2 49436  53.2149 173.9599 0001555  87.3334 272.7837 15.08851469106920,6917.845,95.437,540.786,538.635,0.0
49436.0,STARLINK-3049,PAYLOAD,2023-10-18 01:29:53,15.08852244,0.0001461,53.215,170.9857,118.2169,241.897,0.00035714,5.402e-05,0.0,0 STARLINK-3049,1 49436U 21104AE  23291.06242257  .00005402  00000-0  35714-3 0  9993,2 49436  53.2150 170.9857 0001461 118.2169 241.8970 15.08852244107021,6917.843,95.437,540.719,538.697,0.0
49436.0,STARLINK-3049,PAYLOAD,2023-10-18 09:26:49,15.08848337,0.0001678,53.2156,169.4985,88.7636,271.3548,0.00026213,3.887e-05,0.0,0 STARLINK-3049,1 49436U 21104AE  23291.39362591  .00003887  00000-0  26213-3 0  9992,2 49436  53.2156 169.4985 0001678  88.7636 271.3548 15.08848337108143,6917.855,95.437,540.881,538.559,0.0
49436.0,STARLINK-3049,PAYLOAD,2023-10-18 18:59:08,15.0884403,0.0001784,53.215,167.7145,88.8819,271.2377,0.00018469,2.653e-05,0.0,0 STARLINK-3049,1 49436U 21104AE  23291.79106877  .00002653  00000-0  18469-3 0  9993,2 49436  53.2150 167.7145 0001784  88.8819 271.2377 15.08844030108200,6917.868,95.437,540.967,538.499,0.0
49436.0,STARLINK-3049,PAYLOAD,2023-10-18 22:09:54,15.08841926,0.0001277,53.2158,167.1196,95.3973,264.7165,0.00022688,3.325e-05,0.0,0 STARLINK-3049,1 49436U 21104AE  23291.92354734  .00003325  00000-0  22688-3 0  9990,2 49436  53.2158 167.1196 0001277  95.3973 264.7165 15.08841926107155,6917.875,95.437,540.623,538.856,0.0
49436.0,STARLINK-3049,PAYLOAD,2023-10-19 01:20:40,15.08851072,0.00015,53.2149,166.5251,94.314,265.8024,0.0005327,8.203e-05,0.0,0 STARLINK-3049,1 49436U 21104AE  23292.05602583  .00008203  00000-0  53270-3 0  9994,2 49436  53.2149 166.5251 0001500  94.3140 265.8024 15.08851072107175,6917.847,95.437,540.749,538.674,0.0
49436.0,STARLINK-3049,PAYLOAD,2023-10-19 22:00:40,15.08859292,0.0001261,53.2158,162.6594,92.3567,267.757,0.00057918,8.947e-05,0.0,0 STARLINK-3049,1 49436U 21104AE  23292.91713913  .00008947  00000-0  57918-3 0  9997,2 49436  53.2158 162.6594 0001261  92.3567 267.7570 15.08859292107301,6917.821,95.436,540.559,538.814,0.0
49436.0,STARLINK-3049,PAYLOAD,2023-10-20 01:11:26,15.08869295,0.0001537,53.215,162.0645,92.1406,267.9762,0.00080134,0.00012499,0.0,0 STARLINK-3049,1 49436U 21104AE  23293.04961631  .00012499  00000-0  80134-3 0  9997,2 49436  53.2150 162.0645 0001537  92.1406 267.9762 15.08869295108399,6917.791,95.436,540.719,538.593,0.0
49436.0,STARLINK-3049,PAYLOAD,2023-10-20 20:16:05,15.08835699,0.0001475,53.2158,158.4937,112.8194,247.2954,-3.6635e-05,-8.71e-06,0.0,0 STARLINK-3049,1 49436U 21104AE  23293.84450428 -.00000871  00000-0 -36635-4 0  9993,2 49436  53.2158 158.4937 0001475 112.8194 247.2954 15.08835699108514,6917.894,95.438,540.779,538.738,0.0
49436.0,STARLINK-3049,PAYLOAD,2023-10-20 21:51:28,15.08835125,0.0001317,53.2156,158.1961,104.5036,255.6102,1.2168e-05,-9.4e-07,0.0,0 STARLINK-3049,1 49436U 21104AE  23293.91074537 -.00000094  00000-0  12168-4 0  9995,2 49436  53.2156 158.1961 0001317 104.5036 255.6102 15.08835125107458,6917.895,95.438,540.671,538.849,0.0
49436.0,STARLINK-3049,PAYLOAD,2023-10-21 21:42:15,15.08855092,0.0001065,53.2152,153.7402,96.6157,263.4956,0.00085313,0.00013321,0.0,0 STARLINK-3049,1 49436U 21104AE  23294.90434498  .00013321  00000-0  85313-3 0  9998,2 49436  53.2152 153.7402 0001065  96.6157 263.4956 15.08855092107606,6917.834,95.437,540.436,538.963,0.0
49436.0,STARLINK-3049,PAYLOAD,2023-10-22 07:14:34,15.08842068,0.0001045,53.2153,151.9535,84.6372,275.4739,0.00014186,1.971e-05,0.0,0 STARLINK-3049,1 49436U 21104AE  23295.30178573  .00001971  00000-0  14186-3 0  9990,2 49436  53.2153 151.9535 0001045  84.6372 275.4739 15.08842068108734,6917.874,95.437,540.462,539.016,0.0
49436.0,STARLINK-3049,PAYLOAD,2023-10-22 13:36:07,15.08840379,0.0001313,53.2163,150.7707,102.2927,257.8213,0.00011719,1.578e-05,0.0,0 STARLINK-3049,1 49436U 21104AE  23295.56674874  .00001578  00000-0  11719-3 0  9995,2 49436  53.2163 150.7707 0001313 102.2927 257.8213 15.08840379107704,6917.879,95.438,540.653,538.836,0.0
49436.0,STARLINK-3049,PAYLOAD,2023-10-22 18:22:16,15.08825532,0.0001142,53.2168,149.877,104.0978,256.0141,-0.00032284,-5.42e-05,0.0,0 STARLINK-3049,1 49436U 21104AE  23295.76547218 -.00005420  00000-0 -32284-3 0  9990,2 49436  53.2168 149.8770 0001142 104.0978 256.0141 15.08825532108801,6917.925,95.438,540.58,539.0,0.0
49436.0,STARLINK-3049,PAYLOAD,2023-10-22 21:33:02,15.08831661,0.0001002,53.2154,149.2803,119.335,240.7742,9.1478e-05,1.168e-05,0.0,0 STARLINK-3049,1 49436U 21104AE  23295.89795123  .00001168  00000-0  91478-4 0  9998,2 49436  53.2154 149.2803 0001002 119.3350 240.7742 15.08831661107755,6917.906,95.438,540.464,539.078,0.0
49436.0,STARLINK-3049,PAYLOAD,2023-10-23 07:05:22,15.08836426,0.0001078,53.2151,147.4956,119.807,240.3029,0.0007236,0.00011246,0.0,0 STARLINK-3049,1 49436U 21104AE  23296.29539450  .00011246  00000-0  72360-3 0  9998,2 49436  53.2151 147.4956 0001078 119.8070 240.3029 15.08836426108881,6917.891,95.438,540.502,539.011,0.0
49436.0,STARLINK-3049,PAYLOAD,2023-10-23 21:23:50,15.08850138,0.0001027,53.2146,144.8192,119.5938,240.5156,0.000824,0.00012854,0.0,0 STARLINK-3049,1 49436U 21104AE  23296.89155356  .00012854  00000-0  82400-3 0  9995,2 49436  53.2146 144.8192 0001027 119.5938 240.5156 15.08850138107903,6917.849,95.437,540.425,539.004,0.0
49436.0,STARLINK-3049,PAYLOAD,2023-10-24 06:56:08,15.08844354,0.0001071,53.2151,143.0341,117.6483,242.4618,0.00025743,3.812e-05,0.0,0 STARLINK-3049,1 49436U 21104AE  23297.28899266  .00003812  00000-0  25743-3 0  9995,2 49436  53.2151 143.0341 0001071 117.6483 242.4618 15.08844354109032,6917.867,95.437,540.473,538.991,0.0
49436.0,STARLINK-3049,PAYLOAD,2023-10-24 13:17:41,15.08846745,0.0001,53.2147,141.8455,112.2913,247.8185,0.00027696,4.124e-05,0.0,0 STARLINK-3049,1 49436U 21104AE  23297.55395191  .00004124  00000-0  27696-3 0  9999,2 49436  53.2147 141.8455 0001000 112.2913 247.8185 15.08846745108000,6917.86,95.437,540.417,539.033,0.0
49436.0,STARLINK-3049,PAYLOAD,2023-10-25 13:08:28,15.08840968,0.0001174,53.2138,137.3851,108.2457,251.8662,0.00022821,3.346e-05,0.0,0 STARLINK-3049,1 49436U 21104AE  23298.54755199  .00003346  00000-0  22821-3 0  9997,2 49436  53.2138 137.3851 0001174 108.2457 251.8662 15.08840968109221,6917.877,95.437,540.555,538.93,0.0
49436.0,STARLINK-3049,PAYLOAD,2023-10-26 12:59:15,15.08846057,9.58e-05,53.2147,132.9235,99.332,260.778,0.00019744,2.856e-05,0.0,0 STARLINK-3049,1 49436U 21104AE  23299.54115123  .00002856  00000-0  19744-3 0  9990,2 49436  53.2147 132.9235 0000958  99.3320 260.7780 15.08846057108309,6917.862,95.437,540.39,539.064,0.0
49436.0,STARLINK-3049,PAYLOAD,2023-10-26 22:31:34,15.08850752,9.68e-05,53.2147,131.1391,98.7591,261.3511,0.00047356,7.259e-05,0.0,0 STARLINK-3049,1 49436U 21104AE  23299.93858932  .00007259  00000-0  47356-3 0  9997,2 49436  53.2147 131.1391 0000968  98.7591 261.3511 15.08850752108369,6917.848,95.437,540.382,539.043,0.0
49436.0,STARLINK-3049,PAYLOAD,2023-10-27 12:50:02,15.08839991,8.3e-05,53.2146,128.4625,100.1807,259.9279,8.0734e-05,9.97e-06,0.0,0 STARLINK-3049,1 49436U 21104AE  23300.53475094  .00000997  00000-0  80734-4 0  9990,2 49436  53.2146 128.4625 0000830 100.1807 259.9279 15.08839991109528,6917.88,95.438,540.32,539.171,0.0
49436.0,STARLINK-3049,PAYLOAD,2023-10-27 19:11:34,15.0884564,0.000106,53.2148,127.2736,87.5303,272.581,0.00015134,2.122e-05,0.0,0 STARLINK-3049,1 49436U 21104AE  23300.79970923  .00002122  00000-0  15134-3 0  9992,2 49436  53.2148 127.2736 0001060  87.5303 272.5810 15.08845640108490,6917.863,95.437,540.461,538.995,0.0
49436.0,STARLINK-3049,PAYLOAD,2023-10-27 22:22:21,15.08844405,0.0001009,53.2148,126.6788,89.3535,270.7572,0.00012859,1.76e-05,0.0,0 STARLINK-3049,1 49436U 21104AE  23300.93218969  .00001760  00000-0  12859-3 0  9991,2 49436  53.2148 126.6788 0001009  89.3535 270.7572 15.08844405108516,6917.867,95.437,540.43,539.034,0.0
49436.0,STARLINK-3049,PAYLOAD,2023-10-28 19:02:22,15.08840672,9.63e-05,53.2148,122.8118,89.1738,270.9364,2.0552e-06,-2.55e-06,0.0,0 STARLINK-3049,1 49436U 21104AE  23301.79331140 -.00000255  00000-0  20552-5 0  9993,2 49436  53.2148 122.8118 0000963  89.1738 270.9364 15.08840672109718,6917.878,95.438,540.41,539.077,0.0
